{
    "links": {
        "self": "http://www.neowsapp.com/rest/v1/neo/3424289?api_key=iIulBulltgU6a56xZRHN4H3l9WmuAYTsLGpBGhQ2"
    },
    "id": "3424289",
    "neo_reference_id": "3424289",
    "name": "(2008 PV16)",
    "designation": "2008 PV16",
    "nasa_jpl_url": "http://ssd.jpl.nasa.gov/sbdb.cgi?sstr=3424289",
    "absolute_magnitude_h": 21.3,
    "estimated_diameter": {
        "kilometers": {
            "estimated_diameter_min": 0.1460679643,
            "estimated_diameter_max": 0.3266178974
        },
        "meters": {
            "estimated_diameter_min": 146.0679642714,
            "estimated_diameter_max": 326.6178974458
        },
        "miles": {
            "estimated_diameter_min": 0.090762397,
            "estimated_diameter_max": 0.2029508896
        },
        "feet": {
            "estimated_diameter_min": 479.2256199,
            "estimated_diameter_max": 1071.581062656
        }
    },
    "is_potentially_hazardous_asteroid": false,
    "close_approach_data": [
        {
            "close_approach_date": "2008-08-22",
            "close_approach_date_full": "2008-Aug-22 20:42",
            "epoch_date_close_approach": 1219437720000,
            "relative_velocity": {
                "kilometers_per_second": "23.1923140358",
                "kilometers_per_hour": "83492.3305288796",
                "miles_per_hour": "51878.8872666808"
            },
            "miss_distance": {
                "astronomical": "0.0657877411",
                "lunar": "25.5914312879",
                "kilometers": "9841705.940671457",
                "miles": "6115352.4988698266"
            },
            "orbiting_body": "Earth"
        }
    ],
    "orbital_data": {
        "orbit_id": "14",
        "orbit_determination_date": "2017-04-06 09:03:05",
        "first_observation_date": "2008-08-11",
        "last_observation_date": "2008-08-19",
        "data_arc_in_days": 8,
        "observations_used": 53,
        "orbit_uncertainty": "9",
        "minimum_orbit_intersection": ".0657722",
        "jupiter_tisserand_invariant": "3.592",
        "epoch_osculation": "2454694.5",
        "eccentricity": ".5909161563388491",
        "semi_major_axis": "1.864521680868988",
        "inclination": "33.90128522177738",
        "ascending_node_longitude": "146.2486950295823",
        "orbital_period": "929.9285546755926",
        "perihelion_distance": ".7627456957994352",
        "perihelion_argument": "260.2001123505798",
        "aphelion_distance": "2.966297665938539",
        "perihelion_time": "2454752.928584386263",
        "mean_anomaly": "337.3807457860109",
        "mean_motion": ".3871265143864592",
        "equinox": "J2000",
        "orbit_class": {
            "orbit_class_type": "APO",
            "orbit_class_description": "Near-Earth asteroid orbits which cross the Earth’s orbit similar to that of 1862 Apollo",
            "orbit_class_range": "a (semi-major axis) > 1.0 AU; q (perihelion) < 1.017 AU"
        }
    },
    "is_sentry_object": false
}